DUBAISAT-1              
1 35682U 09041B   26201.12261213  .00000378  00000+0  63471-4 0  9999
2 35682  98.0091 334.0274 0009542 331.9508  28.1185 14.75170804909959
OCEANSAT-2              
1 35931U 09051A   26201.22613905  .00000055  00000+0  63048-4 0  9999
2 35931  98.2324 184.7789 0017650 139.0688 221.1807 13.99656170883950
WORLDVIEW-2 (WV-2)      
1 35946U 09055A   26201.28665952  .00000045  00000+0  29277-4 0  9999
2 35946  98.4752 274.2856 0005474 117.7576 242.4167 14.37907834880404
SMOS                    
1 36036U 09059A   26201.13071554  .00000130  00000+0  55402-4 0  9991
2 36036  98.4431  27.9829 0001199  97.7912 262.3413 14.39737721878199
YAOGAN-7                
1 36110U 09069A   26201.12575507  .00000186  00000+0  32965-4 0  9991
2 36110  98.0026  86.7828 0023260 294.6976  65.1813 14.78038050894497
TANDEM-X                
1 36605U 10030A   26200.46718951  .00000093  00000+0  76149-5 0  9998
2 36605  97.4457 207.7160 0001887  96.1050 264.0399 15.19149242891544
CARTOSAT-2B             
1 36795U 10035A   26201.29537867  .00000000  00000+0  71780-5 0  9994
2 36795  97.9930 251.6298 0012726  85.5466 274.7199 14.78652765864743
YAOGAN-10               
1 36834U 10038A   26201.34971213  .00000763  00000+0  94835-4 0  9995
2 36834  97.8969 224.4900 0001567  84.3913 286.2470 14.85437178862139
COSMO-SKYMED 4          
1 37216U 10060A   26201.32139716 -.00000211  00000+0 -20011-4 0  9992
2 37216  97.8900  24.4416 0001498  86.8958 273.2427 14.82148932849472
RESOURCESAT-2           
1 37387U 11015A   26201.23934099  .00000025  00000+0  31321-4 0  9996
2 37387  98.7627 268.4499 0011849 157.1476 203.0231 14.21600308790872
HAIYANG-2A              
1 37781U 11043A   26201.24827603  .00000207  00000+0  27027-3 0  9997
2 37781  99.3407 203.1624 0001943  20.4233 339.6993 13.73206002751198
RASAT                   
1 37791U 11044D   26201.30245090  .00000178  00000+0  39285-4 0  9997
2 37791  98.0577 292.1946 0021965  87.6988 349.4626 14.68195458798040
SRMSAT                  
1 37841U 11058D   26201.31183391  .00000328  00000+0  34308-4 0  9992
2 37841  19.9702 218.9746 0011587 207.6875 256.6246 14.11581686762509
PLEIADES 1A             
1 38012U 11076F   26201.26239515 -.00000115  00000+0 -14853-4 0  9996
2 38012  98.1961 275.9189 0001599  77.8566 353.9430 14.58547755776811
ZIYUAN 1-02C (ZY 1-02C) 
1 38038U 11079A   26201.33228105  .00000012  00000+0  18096-4 0  9995
2 38038  98.4051 267.9461 0005974 197.6383 235.2680 14.38237655763970
ARIRANG-3 (KOMPSAT-3)   
1 38338U 12025B   26201.28964700  .00000219  00000+0  52722-4 0  9995
2 38338  98.1188 158.1825 0005903  24.9734 335.1752 14.62231576756188
EXACTVIEW-1 (ADS-1B)    
1 38709U 12039C   26201.31228001  .00000045  00000+0  38900-4 0  9992
2 38709  98.9809 319.4557 0011893  78.1158 282.1353 14.24993042727422
SPOT 6                  
1 38755U 12047A   26201.33274008 -.00000127  00000+0 -17445-4 0  9996
2 38755  98.2099 268.2507 0001095  93.2886 266.8438 14.58539554737887
PLEIADES 1B             
1 39019U 12068A   26201.28274987 -.00000011  00000+0  73606-5 0  9996
2 39019  98.1931 275.8764 0001462  79.1049 281.0315 14.58535581725679
GOKTURK 2               
1 39030U 12073A   26201.24101282  .00000088  00000+0  19788-4 0  9991
2 39030  97.6812  37.0138 0001046 102.0317 258.1011 14.75569867729382
LANDSAT 8               
1 39084U 13008A   26201.26098753  .00000153  00000+0  44157-4 0  9990
2 39084  98.2286 271.0008 0001341  91.8911 268.2441 14.57096307702713
SARAL                   
1 39086U 13009A   26201.27981925  .00000027  00000+0  25959-4 0  9995
2 39086  98.5559  27.4288 0001996 154.9060 205.2221 14.32896542700342
GAOFEN-1                
1 39150U 13018A   26201.26922566 -.00000309  00000+0 -37005-4 0  9992
2 39150  97.9076 272.6623 0017528 155.2636 204.9418 14.76520139713127
VNREDSAT 1              
1 39160U 13021B   26201.28588071  .00000110  00000+0  28988-4 0  9996
2 39160  97.9056 253.4289 0001509  81.4924 278.6450 14.64886393705133
ARIRANG-5 (KOMPSAT-5)   
1 39227U 13042A   26201.28723669 -.00000308  00000+0 -17687-4 0  9992
2 39227  97.6203  27.5227 0004842  43.3926 316.7681 15.04493893708836
SKYSAT-A                
1 39418U 13066C   26201.12557983  .00001551  00000+0  90738-4 0  9994
2 39418  97.3797 249.4729 0020934 195.8174 164.2407 15.13130846693463
DUBAISAT-2              
1 39419U 13066D   26201.26399869  .00001394  00000+0  88679-4 0  9993
2 39419  97.4584 190.5497 0009181 282.8414  77.1790 15.10390650691386
GPM-CORE                
1 39574U 14009C   26201.22427850  .00003383  00000+0  76532-4 0  9996
2 39574  64.9698 197.4303 0010867 263.6064  96.3839 15.45078457702911
SENTINEL-1A             
1 39634U 14016A   26201.28181713 -.00000036  00000+0  20393-5 0  9990
2 39634  98.1735 208.3298 0001443  83.7537 276.3827 14.59173554654843
KAZEOSAT 1              
1 39731U 14024A   26201.32677078 -.00000153  00000+0 -33588-4 0  9996
2 39731  98.3189 272.9470 0001183  86.8665 273.2660 14.42037811643332
