OBJECT_NAME,OBJECT_ID,EPOCH,MEAN_MOTION,ECCENTRICITY,INCLINATION,RA_OF_ASC_NODE,ARG_OF_PERICENTER,MEAN_ANOMALY,EPHEMERIS_TYPE,CLASSIFICATION_TYPE,NORAD_CAT_ID,ELEMENT_SET_NO,REV_AT_EPOCH,BSTAR,MEAN_MOTION_DOT,MEAN_MOTION_DDOT
DUBAISAT-1,2009-041B,2026-07-20T02:56:33.688032,14.75170804,.0009542,98.0091,334.0274,331.9508,28.1185,0,U,35682,999,90995,.63470756E-4,.378E-5,0
OCEANSAT-2,2009-051A,2026-07-20T05:25:38.413920,13.99656170,.00176507,98.2324,184.7789,139.0688,221.1807,0,U,35931,999,88395,.63048202E-4,.55E-6,0
WORLDVIEW-2 (WV-2),2009-055A,2026-07-20T06:52:47.382528,14.37907834,.0005474,98.4752,274.2856,117.7576,242.4167,0,U,35946,999,88040,.29277228E-4,.45E-6,0
SMOS,2009-059A,2026-07-20T03:08:13.822656,14.39737721,.00011995,98.4431,27.9829,97.7912,262.3413,0,U,36036,999,87819,.55402252E-4,.13E-5,0
YAOGAN-7,2009-069A,2026-07-20T03:01:05.238048,14.78038050,.00232607,98.0026,86.7828,294.6976,65.1813,0,U,36110,999,89449,.32964583E-4,.186E-5,0
TANDEM-X,2010-030A,2026-07-19T11:12:45.173664,15.19149242,.0001887,97.4457,207.7160,96.1050,264.0399,0,U,36605,999,89154,.76149E-5,.93E-6,0
CARTOSAT-2B,2010-035A,2026-07-20T07:05:20.717088,14.78652765,.00127264,97.9930,251.6298,85.5466,274.7199,0,U,36795,999,86474,.7177984E-5,0,0
YAOGAN-10,2010-038A,2026-07-20T08:23:35.128032,14.85437178,.00015679,97.8969,224.4900,84.3913,286.2470,0,U,36834,999,86213,.94834991E-4,.763E-5,0
COSMO-SKYMED 4,2010-060A,2026-07-20T07:42:48.714624,14.82148932,.00014988,97.8900,24.4416,86.8958,273.2427,0,U,37216,999,84947,-.20011361E-4,-.211E-5,0
RESOURCESAT-2,2011-015A,2026-07-20T05:44:39.061536,14.21600308,.00118499,98.7627,268.4499,157.1476,203.0231,0,U,37387,999,79087,.31321262E-4,.25E-6,0
HAIYANG-2A,2011-043A,2026-07-20T05:57:31.048992,13.73206002,.00019436,99.3407,203.1624,20.4233,339.6993,0,U,37781,999,75119,.27027278E-3,.207E-5,0
RASAT,2011-044D,2026-07-20T07:15:31.757760,14.68195458,.0021965,98.0577,292.1946,87.6988,349.4626,0,U,37791,999,79804,.39285353E-4,.178E-5,0
SRMSAT,2011-058D,2026-07-20T07:29:02.449824,14.11581686,.0011587,19.9702,218.9746,207.6875,256.6246,0,U,37841,999,76250,.3430816E-4,.328E-5,0
PLEIADES 1A,2011-076F,2026-07-20T06:17:50.940960,14.58547755,.0001599,98.1961,275.9189,77.8566,353.9430,0,U,38012,999,77681,-.14852915E-4,-.115E-5,0
ZIYUAN 1-02C (ZY 1-02C),2011-079A,2026-07-20T07:58:29.082720,14.38237655,.00059744,98.4051,267.9461,197.6383,235.2680,0,U,38038,999,76397,.18095579E-4,.12E-6,0
ARIRANG-3 (KOMPSAT-3),2012-025B,2026-07-20T06:57:05.500800,14.62231576,.00059035,98.1188,158.1825,24.9734,335.1752,0,U,38338,999,75618,.52721676E-4,.219E-5,0
EXACTVIEW-1 (ADS-1B),2012-039C,2026-07-20T07:29:40.992864,14.24993042,.00118935,98.9809,319.4557,78.1158,282.1353,0,U,38709,999,72742,.38899966E-4,.45E-6,0
SPOT 6,2012-047A,2026-07-20T07:59:08.742912,14.58539554,.00010957,98.2099,268.2507,93.2886,266.8438,0,U,38755,999,73788,-.17445487E-4,-.127E-5,0
PLEIADES 1B,2012-068A,2026-07-20T06:47:09.588768,14.58535581,.00014624,98.1931,275.8764,79.1049,281.0315,0,U,39019,999,72567,.7360566E-5,-.11E-6,0
GOKTURK 2,2012-073A,2026-07-20T05:47:03.507648,14.75569867,.00010461,97.6812,37.0138,102.0317,258.1011,0,U,39030,999,72938,.19787554E-4,.88E-6,0
LANDSAT 8,2013-008A,2026-07-20T06:15:49.322592,14.57096307,.00013413,98.2286,271.0008,91.8911,268.2441,0,U,39084,999,70271,.44156949E-4,.153E-5,0
SARAL,2013-009A,2026-07-20T06:42:56.383200,14.32896542,.00019964,98.5559,27.4288,154.9060,205.2221,0,U,39086,999,70034,.25959138E-4,.27E-6,0
GAOFEN-1,2013-018A,2026-07-20T06:27:41.097024,14.76520139,.00175283,97.9076,272.6623,155.2636,204.9418,0,U,39150,999,71312,-.37004701E-4,-.309E-5,0
VNREDSAT 1,2013-021B,2026-07-20T06:51:40.093344,14.64886393,.00015099,97.9056,253.4289,81.4924,278.6450,0,U,39160,999,70513,.28987623E-4,.11E-5,0
ARIRANG-5 (KOMPSAT-5),2013-042A,2026-07-20T06:53:37.250016,15.04493893,.0004842,97.6203,27.5227,43.3926,316.7681,0,U,39227,999,70883,-.17687224E-4,-.308E-5,0
SKYSAT-A,2013-066C,2026-07-20T03:00:50.097312,15.13130846,.00209349,97.3797,249.4729,195.8174,164.2407,0,U,39418,999,69346,.90737769E-4,.1551E-4,0
DUBAISAT-2,2013-066D,2026-07-20T06:20:09.486816,15.10390650,.00091817,97.4584,190.5497,282.8414,77.1790,0,U,39419,999,69138,.88679492E-4,.1394E-4,0
GPM-CORE,2014-009C,2026-07-20T05:22:57.662400,15.45078457,.0010867,64.9698,197.4303,263.6064,96.3839,0,U,39574,999,70291,.7653236E-4,.3383E-4,0
SENTINEL-1A,2014-016A,2026-07-20T06:45:49.000032,14.59173554,.00014438,98.1735,208.3298,83.7537,276.3827,0,U,39634,999,65484,.2039259E-5,-.36E-6,0
KAZEOSAT 1,2014-024A,2026-07-20T07:50:32.995392,14.42037811,.00011839,98.3189,272.9470,86.8665,273.2660,0,U,39731,999,64333,-.33588156E-4,-.153E-5,0
